[
    {
        "Altitude(m)": 604983.0529183298,
        "Argument of Periapsis(deg)": 0.0,
        "Eccentricity": 0.0,
        "Inclination(deg)": 60.0,
        "Latitude(deg)": -0.09260544142507915,
        "Longitude(deg)": 25.083916542501917,
        "Mean Anomaly(deg)": -180.00000000000003,
        "RAAN(deg)": 305.0,
        "Satellite Name": "Test1 1353",
        "Satellite Number": 1353,
        "Semi-Major Axis(m)": 6980739.136638005,
        "Time(s)": 0
    },
    {
        "Altitude(m)": 605055.3320783597,
        "Argument of Periapsis(deg)": 0.00010418945913296404,
        "Eccentricity": 0.0,
        "Inclination(deg)": 60.0,
        "Latitude(deg)": -0.6330149012995351,
        "Longitude(deg)": 25.35204227756893,
        "Mean Anomaly(deg)": -179.37989385453818,
        "RAAN(deg)": 304.99957995086027,
        "Satellite Name": "Test1 1353",
        "Satellite Number": 1353,
        "Semi-Major Axis(m)": 6980739.136638005,
        "Time(s)": 10
    },
    {
        "Altitude(m)": 605130.8202936337,
        "Argument of Periapsis(deg)": 0.0002083789182659281,
        "Eccentricity": 0.0,
        "Inclination(deg)": 60.0,
        "Latitude(deg)": -1.1733934417542555,
        "Longitude(deg)": 25.6202256462818,
        "Mean Anomaly(deg)": -178.75978770907636,
        "RAAN(deg)": 304.9991599017205,
        "Satellite Name": "Test1 1353",
        "Satellite Number": 1353,
        "Semi-Major Axis(m)": 6980739.136638005,
        "Time(s)": 20
    },
    {
        "Altitude(m)": 605209.5066009689,
        "Argument of Periapsis(deg)": 0.00031256837739889213,
        "Eccentricity": 0.0,
        "Inclination(deg)": 60.0,
        "Latitude(deg)": -1.713723982272408,
        "Longitude(deg)": 25.88852103645179,
        "Mean Anomaly(deg)": -178.13968156361454,
        "RAAN(deg)": 304.9987398525808,
        "Satellite Name": "Test1 1353",
        "Satellite Number": 1353,
        "Semi-Major Axis(m)": 6980739.136638005,
        "Time(s)": 30
    },
    {
        "Altitude(m)": 605291.3785132489,
        "Argument of Periapsis(deg)": 0.0004167578365318562,
        "Eccentricity": 0.0,
        "Inclination(deg)": 60.0,
        "Latitude(deg)": -2.2539894242861576,
        "Longitude(deg)": 26.156983403678822,
        "Mean Anomaly(deg)": -177.51957541815267,
        "RAAN(deg)": 304.998319803441,
        "Satellite Name": "Test1 1353",
        "Satellite Number": 1353,
        "Semi-Major Axis(m)": 6980739.136638005,
        "Time(s)": 40
    },
    {
        "Altitude(m)": 605376.4220227582,
        "Argument of Periapsis(deg)": 0.0005209472956648203,
        "Eccentricity": 0.0,
        "Inclination(deg)": 60.0,
        "Latitude(deg)": -2.7941726412664183,
        "Longitude(deg)": 26.425667294772122,
        "Mean Anomaly(deg)": -176.89946927269082,
        "RAAN(deg)": 304.9978997543013,
        "Satellite Name": "Test1 1353",
        "Satellite Number": 1353,
        "Semi-Major Axis(m)": 6980739.136638005,
        "Time(s)": 50
    },
    {
        "Altitude(m)": 605464.621605263,
        "Argument of Periapsis(deg)": 0.0006251367547977843,
        "Eccentricity": 0.0,
        "Inclination(deg)": 60.0,
        "Latitude(deg)": -3.3342564687700924,
        "Longitude(deg)": 26.69462738412609,
        "Mean Anomaly(deg)": -176.27936312722898,
        "RAAN(deg)": 304.99747970516154,
        "Satellite Name": "Test1 1353",
        "Satellite Number": 1353,
        "Semi-Major Axis(m)": 6980739.136638005,
        "Time(s)": 60
    },
    {
        "Altitude(m)": 605555.9602247959,
        "Argument of Periapsis(deg)": 0.0007293262139307483,
        "Eccentricity": 0.0,
        "Inclination(deg)": 60.0,
        "Latitude(deg)": -3.874223694434387,
        "Longitude(deg)": 26.963919010209917,
        "Mean Anomaly(deg)": -175.6592569817672,
        "RAAN(deg)": 304.9970596560218,
        "Satellite Name": "Test1 1353",
        "Satellite Number": 1353,
        "Semi-Major Axis(m)": 6980739.136638005,
        "Time(s)": 70
    },
    {
        "Altitude(m)": 605650.4193392526,
        "Argument of Periapsis(deg)": 0.0008335156730637124,
        "Eccentricity": 0.0,
        "Inclination(deg)": 60.0,
        "Latitude(deg)": -4.414057047906013,
        "Longitude(deg)": 27.233597199323818,
        "Mean Anomaly(deg)": -175.0391508363053,
        "RAAN(deg)": 304.99663960688207,
        "Satellite Name": "Test1 1353",
        "Satellite Number": 1353,
        "Semi-Major Axis(m)": 6980739.136638005,
        "Time(s)": 80
    },
    {
        "Altitude(m)": 605747.9789066728,
        "Argument of Periapsis(deg)": 0.0009377051321966765,
        "Eccentricity": 0.0,
        "Inclination(deg)": 60.0,
        "Latitude(deg)": -4.9537391906875925,
        "Longitude(deg)": 27.50371720239844,
        "Mean Anomaly(deg)": -174.41904469084346,
        "RAAN(deg)": 304.99621955774234,
        "Satellite Name": "Test1 1353",
        "Satellite Number": 1353,
        "Semi-Major Axis(m)": 6980739.136638005,
        "Time(s)": 90
    },
    {
        "Altitude(m)": 605848.6173922867,
        "Argument of Periapsis(deg)": 0.0010418945913296407,
        "Eccentricity": 0.0,
        "Inclination(deg)": 60.0,
        "Latitude(deg)": -5.493252705889973,
        "Longitude(deg)": 27.774335031993505,
        "Mean Anomaly(deg)": -173.79893854538173,
        "RAAN(deg)": 304.99579950860254,
        "Satellite Name": "Test1 1353",
        "Satellite Number": 1353,
        "Semi-Major Axis(m)": 6980739.136638005,
        "Time(s)": 100
    },
    {
        "Altitude(m)": 605952.3117762953,
        "Argument of Periapsis(deg)": 0.0011460840504626045,
        "Eccentricity": 0.0,
        "Inclination(deg)": 60.0,
        "Latitude(deg)": -6.0325800878794045,
        "Longitude(deg)": 28.04550648665063,
        "Mean Anomaly(deg)": -173.17883239991983,
        "RAAN(deg)": 304.99537945946287,
        "Satellite Name": "Test1 1353",
        "Satellite Number": 1353,
        "Semi-Major Axis(m)": 6980739.136638005,
        "Time(s)": 110
    },
    {
        "Altitude(m)": 606059.0375623755,
        "Argument of Periapsis(deg)": 0.0012502735095955685,
        "Eccentricity": 0.0,
        "Inclination(deg)": 60.0,
        "Latitude(deg)": -6.571703731798633,
        "Longitude(deg)": 28.317287688375252,
        "Mean Anomaly(deg)": -172.55872625445807,
        "RAAN(deg)": 304.9949594103231,
        "Satellite Name": "Test1 1353",
        "Satellite Number": 1353,
        "Semi-Major Axis(m)": 6980739.136638005,
        "Time(s)": 120
    },
    {
        "Altitude(m)": 606168.7687869153,
        "Argument of Periapsis(deg)": 0.0013544629687285324,
        "Eccentricity": 0.0,
        "Inclination(deg)": 60.0,
        "Latitude(deg)": -7.110605922953809,
        "Longitude(deg)": 28.589735620405705,
        "Mean Anomaly(deg)": -171.93862010899622,
        "RAAN(deg)": 304.99453936118334,
        "Satellite Name": "Test1 1353",
        "Satellite Number": 1353,
        "Semi-Major Axis(m)": 6980739.136638005,
        "Time(s)": 130
    },
    {
        "Altitude(m)": 606281.4780289682,
        "Argument of Periapsis(deg)": 0.0014586524278614966,
        "Eccentricity": 0.0,
        "Inclination(deg)": 60.0,
        "Latitude(deg)": -7.64926882605142,
        "Longitude(deg)": 28.862907152422565,
        "Mean Anomaly(deg)": -171.31851396353437,
        "RAAN(deg)": 304.9941193120436,
        "Satellite Name": "Test1 1353",
        "Satellite Number": 1353,
        "Semi-Major Axis(m)": 6980739.136638005,
        "Time(s)": 140
    },
    {
        "Altitude(m)": 606397.1364209232,
        "Argument of Periapsis(deg)": 0.0015628418869944607,
        "Eccentricity": 0.0,
        "Inclination(deg)": 60.0,
        "Latitude(deg)": -8.187674474268512,
        "Longitude(deg)": 29.136859578976118,
        "Mean Anomaly(deg)": -170.69840781807255,
        "RAAN(deg)": 304.9936992629039,
        "Satellite Name": "Test1 1353",
        "Satellite Number": 1353,
        "Semi-Major Axis(m)": 6980739.136638005,
        "Time(s)": 150
    },
    {
        "Altitude(m)": 606515.7136598792,
        "Argument of Periapsis(deg)": 0.0016670313461274247,
        "Eccentricity": 0.0,
        "Inclination(deg)": 60.0,
        "Latitude(deg)": -8.72580475814208,
        "Longitude(deg)": 29.411651158286546,
        "Mean Anomaly(deg)": -170.0783016726107,
        "RAAN(deg)": 304.99327921376414,
        "Satellite Name": "Test1 1353",
        "Satellite Number": 1353,
        "Semi-Major Axis(m)": 6980739.136638005,
        "Time(s)": 160
    },
    {
        "Altitude(m)": 606637.178019739,
        "Argument of Periapsis(deg)": 0.0017712208052603888,
        "Eccentricity": 0.0,
        "Inclination(deg)": 60.0,
        "Latitude(deg)": -9.263641414265996,
        "Longitude(deg)": 29.687340138573735,
        "Mean Anomaly(deg)": -169.45819552714886,
        "RAAN(deg)": 304.9928591646244,
        "Satellite Name": "Test1 1353",
        "Satellite Number": 1353,
        "Semi-Major Axis(m)": 6980739.136638005,
        "Time(s)": 170
    },
    {
        "Altitude(m)": 606761.4963639824,
        "Argument of Periapsis(deg)": 0.001875410264393353,
        "Eccentricity": 0.0,
        "Inclination(deg)": 60.0,
        "Latitude(deg)": -9.801166013774163,
        "Longitude(deg)": 29.963985297691817,
        "Mean Anomaly(deg)": -168.8380893816871,
        "RAAN(deg)": 304.9924391154846,
        "Satellite Name": "Test1 1353",
        "Satellite Number": 1353,
        "Semi-Major Axis(m)": 6980739.136638005,
        "Time(s)": 180
    },
    {
        "Altitude(m)": 606888.634159147,
        "Argument of Periapsis(deg)": 0.0019795997235263173,
        "Eccentricity": 0.0,
        "Inclination(deg)": 60.0,
        "Latitude(deg)": -10.338359950597875,
        "Longitude(deg)": 30.241646483225722,
        "Mean Anomaly(deg)": -168.2179832362252,
        "RAAN(deg)": 304.99201906634494,
        "Satellite Name": "Test1 1353",
        "Satellite Number": 1353,
        "Semi-Major Axis(m)": 6980739.136638005,
        "Time(s)": 190
    }
]